COSMOS 2251 DEB         
1 34008U 93036GT  17345.89612081  .00000023  00000-0  18521-4 0  9997
2 34008  74.0350 262.0004 0025349 247.6955 177.6381 14.31581703461301
